STARLINK-1301           
1 45361U 20019B   26136.35720157  .00079155  00000+0  55307-3 0  9998
2 45361  53.0370 129.7855 0006921  51.6126 308.5513 15.73588379341239
STARLINK-1262           
1 45366U 20019G   26136.47069884  .00035267  00000+0  11260-2 0  9994
2 45366  53.1553 210.2762 0003115   6.3831 353.7210 15.32175188340132
STARLINK-1273           
1 45367U 20019H   26136.52539992  .00040636  00000+0  62042-3 0  9994
2 45367  53.0452 189.6223 0005896 341.5115  18.5680 15.54036874340418
STARLINK-1277           
1 45369U 20019K   26136.50814625  .00046650  00000+0  56389-3 0  9992
2 45369  53.0444 184.8029 0006419 333.8171  26.2516 15.60246688340484
STARLINK-1281           
1 45370U 20019L   26136.49570861  .00019908  00000+0  62418-3 0  9999
2 45370  53.1566 209.9266 0004049   1.6728 358.4287 15.33074319340147
STARLINK-1300           
1 45374U 20019Q   26136.57927083  .00049698  00000+0  15182-2 0  9998
2 45374  53.1590 209.5053 0004121  13.8675 346.2440 15.33422805340159
STARLINK-1302           
1 45375U 20019R   26136.55997197  .00038084  00000+0  38325-3 0  9992
2 45375  53.0448 181.2630 0005014 359.6366   0.4644 15.65062368340534
STARLINK-1304           
1 45376U 20019S   26136.42752333  .00070465  00000+0  86674-3 0  9999
2 45376  53.0420 182.4363 0006163 355.8541   4.2419 15.59615609340504
STARLINK-1305           
1 45377U 20019T   26136.30878506  .00043514  00000+0  43076-3 0  9992
2 45377  53.0369 162.9324 0010594   3.0377 357.0700 15.65360539340776
STARLINK-1319           
1 45379U 20019V   26136.55161952  .00062020  00000+0  43370-3 0  9991
2 45379  53.0392 154.3984 0005338  21.5516 338.5726 15.73679988340919
STARLINK-1266           
1 45383U 20019Z   26136.58247273  .00043996  00000+0  62814-3 0  9995
2 45383  53.0433 166.7478 0005694 348.1218  11.9657 15.55836026340730
STARLINK-1267           
1 45384U 20019AA  26136.51229124  .00050780  00000+0  57622-3 0  9994
2 45384  53.0434 158.6124 0007188  29.7974 330.3447 15.61849763340847
STARLINK-1272           
1 45386U 20019AC  26136.40771943  .00088380  00000+0  80575-3 0  9995
2 45386  53.0378 138.6702 0008177  20.4456 339.6885 15.67141977341115
STARLINK-1274           
1 45387U 20019AD  26136.43786971  .00054602  00000+0  72262-3 0  9990
2 45387  53.0206 136.3577 0009548  43.6527 316.5237 15.57751146341142
STARLINK-1280           
1 45388U 20019AE  26136.31815472  .00072697  00000+0  49212-3 0  9990
2 45388  53.0365 148.0506 0005998  28.3062 331.8281 15.74366192340960
STARLINK-1283           
1 45389U 20019AF  26136.44380523  .00049718  00000+0  43674-3 0  9993
2 45389  53.0383 137.7868 0004529  46.1192 314.0197 15.68322811341130
STARLINK-1284           
1 45390U 20019AG  26136.50948055  .00043708  00000+0  39984-3 0  9994
2 45390  53.0393 161.1653 0005001 337.9434  22.1366 15.67378688340802
STARLINK-1297           
1 45395U 20019AM  26136.62891454  .00041128  00000+0  40059-3 0  9991
2 45395  53.0404 159.3467 0006760 346.6351  13.4484 15.65834368340028
STARLINK-1307           
1 45397U 20019AP  26136.33029173  .00029539  00000+0  43736-3 0  9999
2 45397  53.0515 164.8580 0002303  32.9820 327.1334 15.55052677340567
STARLINK-1255           
1 45399U 20019AR  26136.43034235  .00063587  00000+0  69555-3 0  9995
2 45399  53.0338 133.6931 0006516  34.0899 326.0532 15.62705830340994
STARLINK-1260           
1 45404U 20019AW  26136.57833648  .00025914  00000+0  74456-3 0  9990
2 45404  53.1546 172.6866 0005691   9.1305 350.9800 15.35668453340387
STARLINK-1263           
1 45405U 20019AX  26136.57537740  .00020898  00000+0  65287-3 0  9993
2 45405  53.1561 173.5356 0004181  28.4747 331.6483 15.33156517340379
STARLINK-1265           
1 45406U 20019AY  26136.57625139  .00020422  00000+0  58326-3 0  9993
2 45406  53.1553 172.7432 0005361   2.0861 358.0164 15.36004524340386
STARLINK-1278           
1 45408U 20019BA  26136.34904905  .00049171  00000+0  46281-3 0  9990
2 45408  53.0387 159.8065 0006900   6.5243 353.5861 15.66607512340533
STARLINK-1296           
1 45412U 20019BE  26136.55391280  .00024606  00000+0  69553-3 0  9997
2 45412  53.1552 172.5748 0006295   0.6429 359.4581 15.36206659340382
STARLINK-1309           
1 45414U 20019BG  26136.48489271  .00040679  00000+0  39470-3 0  9992
2 45414  53.0596 152.8870 0006649 345.2928  14.7893 15.65937076340623
STARLINK-1316           
1 45415U 20019BH  26136.33243863  .00035774  00000+0  99597-3 0  9998
2 45415  53.1552 173.5966 0006399   1.5373 358.5649 15.36482938340371
STARLINK-1286           
1 45417U 20019BK  26136.34354337  .00041309  00000+0  57976-3 0  9996
2 45417  53.0448 164.2852 0003717 348.8006  11.2921 15.56338665340744
STARLINK-1308           
1 45419U 20019BM  26136.34201700  .00086754  00000+0  93651-3 0  9996
2 45419  53.0462 184.1112 0007714 329.0519  31.0039 15.62904348340219
STARLINK-1329           
1 45531U 20025A   26136.18120409  .00052863  00000+0  42887-3 0  9995
2 45531  53.0419 109.8107 0005380  57.2193 302.9341 15.70224007336025
