OBJECT_NAME,OBJECT_ID,EPOCH,MEAN_MOTION,ECCENTRICITY,INCLINATION,RA_OF_ASC_NODE,ARG_OF_PERICENTER,MEAN_ANOMALY,EPHEMERIS_TYPE,CLASSIFICATION_TYPE,NORAD_CAT_ID,ELEMENT_SET_NO,REV_AT_EPOCH,BSTAR,MEAN_MOTION_DOT,MEAN_MOTION_DDOT
STARLINK-1301,2020-019B,2026-05-16T08:34:22.215648,15.73588379,.00069215,53.0370,129.7855,51.6126,308.5513,0,U,45361,999,34123,.55306839E-3,.79155E-3,0
STARLINK-1262,2020-019G,2026-05-16T11:17:48.380640,15.32175188,.00031149,53.1553,210.2762,6.3831,353.7210,0,U,45366,999,34013,.11259811E-2,.35267E-3,0
STARLINK-1273,2020-019H,2026-05-16T12:36:34.553952,15.54036874,.00058956,53.0452,189.6223,341.5115,18.5680,0,U,45367,999,34041,.62041744E-3,.40636E-3,0
STARLINK-1277,2020-019K,2026-05-16T12:11:43.836864,15.60246688,.00064194,53.0444,184.8029,333.8171,26.2516,0,U,45369,999,34048,.56388913E-3,.4665E-3,0
STARLINK-1281,2020-019L,2026-05-16T11:53:49.224768,15.33074319,.00040488,53.1566,209.9266,1.6728,358.4287,0,U,45370,999,34014,.62418282E-3,.19908E-3,0
STARLINK-1300,2020-019Q,2026-05-16T13:54:08.999712,15.33422805,.00041213,53.1590,209.5053,13.8675,346.2440,0,U,45374,999,34015,.15181822E-2,.49698E-3,0
STARLINK-1302,2020-019R,2026-05-16T13:26:21.578208,15.65062368,.00050147,53.0448,181.2630,359.6366,0.4644,0,U,45375,999,34053,.38324764E-3,.38084E-3,0
STARLINK-1304,2020-019S,2026-05-16T10:15:38.016576,15.59615609,.00061628,53.0420,182.4363,355.8541,4.2419,0,U,45376,999,34050,.86673778E-3,.70465E-3,0
STARLINK-1305,2020-019T,2026-05-16T07:24:39.029184,15.65360539,.0010594,53.0369,162.9324,3.0377,357.0700,0,U,45377,999,34077,.43076261E-3,.43514E-3,0
STARLINK-1319,2020-019V,2026-05-16T13:14:19.926528,15.73679988,.00053381,53.0392,154.3984,21.5516,338.5726,0,U,45379,999,34091,.43369713E-3,.6202E-3,0
STARLINK-1266,2020-019Z,2026-05-16T13:58:45.643872,15.55836026,.00056945,53.0433,166.7478,348.1218,11.9657,0,U,45383,999,34073,.62814412E-3,.43996E-3,0
STARLINK-1267,2020-019AA,2026-05-16T12:17:41.963136,15.61849763,.00071883,53.0434,158.6124,29.7974,330.3447,0,U,45384,999,34084,.57621501E-3,.5078E-3,0
STARLINK-1272,2020-019AC,2026-05-16T09:47:06.958752,15.67141977,.0008177,53.0378,138.6702,20.4456,339.6885,0,U,45386,999,34111,.80574892E-3,.8838E-3,0
STARLINK-1274,2020-019AD,2026-05-16T10:30:31.942944,15.57751146,.00095489,53.0206,136.3577,43.6527,316.5237,0,U,45387,999,34114,.7226199E-3,.54602E-3,0
STARLINK-1280,2020-019AE,2026-05-16T07:38:08.567808,15.74366192,.00059988,53.0365,148.0506,28.3062,331.8281,0,U,45388,999,34096,.49211747E-3,.72697E-3,0
STARLINK-1283,2020-019AF,2026-05-16T10:39:04.771872,15.68322811,.00045296,53.0383,137.7868,46.1192,314.0197,0,U,45389,999,34113,.43673959E-3,.49718E-3,0
STARLINK-1284,2020-019AG,2026-05-16T12:13:39.119520,15.67378688,.00050015,53.0393,161.1653,337.9434,22.1366,0,U,45390,999,34080,.39984433E-3,.43708E-3,0
STARLINK-1297,2020-019AM,2026-05-16T15:05:38.216256,15.65834368,.000676,53.0404,159.3467,346.6351,13.4484,0,U,45395,999,34002,.40059189E-3,.41128E-3,0
STARLINK-1307,2020-019AP,2026-05-16T07:55:37.205472,15.55052677,.0002303,53.0515,164.8580,32.9820,327.1334,0,U,45397,999,34056,.43735542E-3,.29539E-3,0
STARLINK-1255,2020-019AR,2026-05-16T10:19:41.579040,15.62705830,.00065164,53.0338,133.6931,34.0899,326.0532,0,U,45399,999,34099,.69554691E-3,.63587E-3,0
STARLINK-1260,2020-019AW,2026-05-16T13:52:48.271872,15.35668453,.00056912,53.1546,172.6866,9.1305,350.9800,0,U,45404,999,34038,.74456181E-3,.25914E-3,0
STARLINK-1263,2020-019AX,2026-05-16T13:48:32.607360,15.33156517,.00041813,53.1561,173.5356,28.4747,331.6483,0,U,45405,999,34037,.65286959E-3,.20898E-3,0
STARLINK-1265,2020-019AY,2026-05-16T13:49:48.120096,15.36004524,.00053615,53.1553,172.7432,2.0861,358.0164,0,U,45406,999,34038,.58325516E-3,.20422E-3,0
STARLINK-1278,2020-019BA,2026-05-16T08:22:37.837920,15.66607512,.00069002,53.0387,159.8065,6.5243,353.5861,0,U,45408,999,34053,.46281316E-3,.49171E-3,0
STARLINK-1296,2020-019BE,2026-05-16T13:17:38.065920,15.36206659,.00062956,53.1552,172.5748,0.6429,359.4581,0,U,45412,999,34038,.69553495E-3,.24606E-3,0
STARLINK-1309,2020-019BG,2026-05-16T11:38:14.730144,15.65937076,.00066494,53.0596,152.8870,345.2928,14.7893,0,U,45414,999,34062,.39469731E-3,.40679E-3,0
STARLINK-1316,2020-019BH,2026-05-16T07:58:42.697632,15.36482938,.00063992,53.1552,173.5966,1.5373,358.5649,0,U,45415,999,34037,.99597314E-3,.35774E-3,0
STARLINK-1286,2020-019BK,2026-05-16T08:14:42.147168,15.56338665,.00037178,53.0448,164.2852,348.8006,11.2921,0,U,45417,999,34074,.5797579E-3,.41309E-3,0
STARLINK-1308,2020-019BM,2026-05-16T08:12:30.268800,15.62904348,.00077147,53.0462,184.1112,329.0519,31.0039,0,U,45419,999,34021,.93651147E-3,.86754E-3,0
STARLINK-1329,2020-025A,2026-05-16T04:20:56.033376,15.70224007,.00053806,53.0419,109.8107,57.2193,302.9341,0,U,45531,999,33602,.42886616E-3,.52863E-3,0
